STARLINK-32757          
1 62492U 25003F   26068.58773381  .00022278  00000+0  81611-3 0  9997
2 62492  42.9926 289.7462 0001300  75.9369 284.1627 15.27601008 66538
BLUEBON                 
1 62688U 25009CH  26068.70316231  .00010452  00000+0  37313-3 0  9992
2 62688  97.4017 152.2033 0001193  43.3900 316.7434 15.29047253 63767
